STARLINK-2022           
1 47643U 21012Z   24216.23135955  .00003048  00000+0  22347-3 0  9993
2 47643  53.0534 150.8632 0001574 104.7119 255.4044 15.06389194192328
